MEAN_MOTION;ECCENTRICITY;INCLINATION;RA_OF_ASC_NODE;ARG_OF_PERICENTER;MEAN_ANOMALY;BSTAR;MEAN_MOTION_DOT;MEAN_MOTION_DDOT;TYPE
13.53089576;0.0351231;98.5225;241.2386;125.7983;237.6341;4.2434E-5;9.0E-8;0;Amateur
13.53089605;0.0351231;98.5226;241.3663;125.4143;238.0335;4.5104E-5;1.2E-7;0;Amateur
13.53089686;0.0351256;98.5227;242.132;123.1183;240.4187;4.8008E-5;1.5E-7;0;Amateur
13.53089739;0.0351264;98.5228;242.5786;121.7791;241.8072;4.9208E-5;1.6E-7;0;Amateur
13.5308979;0.0351279;98.5229;242.9615;120.6317;242.9955;4.8972E-5;1.6E-7;0;Amateur
13.53089804;0.0351285;98.523;243.4081;119.2923;244.3805;4.4234E-5;1.1E-7;0;Amateur
13.53089792;0.0351294;98.523;243.6634;118.5265;245.1716;3.9684E-5;7.0E-8;0;Amateur
13.53089819;0.0351301;98.5231;243.8548;117.9527;245.7638;3.8713E-5;6.0E-8;0;Amateur
13.53089856;0.0351311;98.5232;244.4291;116.231;247.5386;3.3783E-5;1.0E-8;0;Amateur
13.53089898;0.0351328;98.5233;245.2587;113.7447;250.0956;2.417E-5;-8.0E-8;0;Amateur
13.5308989;0.035133;98.5234;245.3863;113.362;250.4885;2.261E-5;-1.0E-7;0;Amateur
13.53089922;0.0351351;98.5235;246.4072;110.3018;253.6244;1.0087E-5;-2.2E-7;0;Amateur
13.53089911;0.0351353;98.5235;246.5349;109.919;254.0159;7.1309E-6;-2.5E-7;0;Amateur
13.53089875;0.0351325;98.5239;247.3006;107.6172;256.3657;1.5336E-5;-1.7E-7;0;Amateur
13.53089957;0.0351362;98.5237;247.4283;107.2405;256.7501;7.1383E-6;-2.5E-7;0;Amateur
13.53090013;0.0351371;98.5239;248.1303;105.137;258.8914;7.0424E-6;-2.5E-7;0;Amateur
13.53090014;0.0351375;98.5239;248.577;103.7982;260.2514;5.4609E-6;-2.7E-7;0;Amateur
13.53090052;0.0351382;98.5241;249.4704;101.1206;262.9649;9.0546E-6;-2.3E-7;0;Amateur
13.53090061;0.0351385;98.5243;249.8532;99.973;264.1252;7.7231E-6;-2.5E-7;0;Amateur
13.53090063;0.0351383;98.5244;250.5553;97.8682;266.2489;9.5512E-6;-2.3E-7;0;Amateur
13.53090081;0.0351384;98.5245;250.7467;97.2947;266.8266;1.0983E-5;-2.1E-7;0;Amateur
13.53090101;0.0351382;98.5245;251.1934;95.9556;268.174;1.33E-5;-1.9E-7;0;Amateur
13.53090109;0.0351384;98.5246;251.5763;94.8084;269.3266;1.1797E-5;-2.1E-7;0;Amateur
13.53090105;0.0351383;98.5246;251.6401;94.617;269.5187;1.0869E-5;-2.2E-7;0;Amateur
13.53090108;0.0351379;98.5247;252.0231;93.4694;270.6697;1.1199E-5;-2.1E-7;0;Amateur
13.53090121;0.0351376;98.5248;252.4698;92.1305;272.0106;1.2967E-5;-2.0E-7;0;Amateur
13.53090118;0.0351376;98.5248;252.5336;91.9389;272.2023;1.2577E-5;-2.0E-7;0;Amateur
13.53090104;0.0351369;98.5248;252.9166;90.7902;273.3506;8.2427E-6;-2.4E-7;0;Amateur
13.53090134;0.0351372;98.5249;253.3633;89.4518;274.6865;8.6886E-6;-2.4E-7;0;Amateur
13.53090145;0.0351366;98.525;253.81;88.1127;276.021;8.8578E-6;-2.4E-7;0;Amateur
13.53090156;0.0351364;98.5251;254.1929;86.9657;277.1623;9.466E-6;-2.3E-7;0;Amateur
13.53090161;0.0351363;98.5252;254.7035;85.4352;278.6828;7.13E-6;-2.5E-7;0;Amateur
13.53090163;0.0351362;98.5252;255.0864;84.2875;279.821;3.7876E-6;-2.9E-7;0;Amateur
13.53090167;0.0351351;98.5253;255.597;82.7565;281.3369;2.5237E-6;-3.0E-7;0;Amateur
13.53090169;0.0351349;98.5254;255.9161;81.8006;282.2819;1.483E-6;-3.1E-7;0;Amateur
13.53090147;0.035134;98.5255;256.8096;79.1225;284.9238;-7.4277E-6;-4.0E-7;0;Amateur
13.53090136;0.0351325;98.5257;257.5755;76.8276;287.181;-8.9154E-6;-4.1E-7;0;Amateur
13.53090146;0.0351324;98.5257;257.6393;76.6362;287.3689;-7.7323E-6;-4.0E-7;0;Amateur
13.53090124;0.035131;98.5258;258.469;74.1498;289.807;-1.2144E-5;-4.5E-7;0;Amateur
13.53090124;0.035131;98.5258;258.5328;73.9583;289.9944;-1.2573E-5;-4.5E-7;0;Amateur
13.53090119;0.0351297;98.5259;259.1073;72.2363;291.6784;-9.8433E-6;-4.2E-7;0;Amateur
13.5309012;0.0351292;98.526;259.3626;71.4709;292.4257;-1.0111E-5;-4.3E-7;0;Amateur
13.53090078;0.0351287;98.526;259.6179;70.7058;293.1723;-1.4789E-5;-4.7E-7;0;Amateur
13.53090069;0.035128;98.5261;259.937;69.7493;294.1045;-1.7755E-5;-5.0E-7;0;Amateur
13.53090077;0.0351276;98.5262;260.2561;68.7932;295.0354;-1.4385E-5;-4.7E-7;0;Amateur
13.5309005;0.0351259;98.5264;261.022;66.4973;297.2667;-1.2002E-5;-4.5E-7;0;Amateur
13.53090054;0.0351258;98.5264;261.0859;66.3059;297.4525;-1.1771E-5;-4.5E-7;0;Amateur
13.5309003;0.0351236;98.5266;261.9795;63.627;300.0481;-7.9095E-6;-4.1E-7;0;Amateur
13.53090027;0.0351235;98.5266;262.0433;63.4355;300.2334;-7.0534E-6;-4.0E-7;0;Amateur
13.53090036;0.0351215;98.5267;262.8092;61.1393;302.4519;2.3463E-6;-3.1E-7;0;Amateur
13.5309003;0.0351212;98.5268;262.9369;60.7564;302.8213;3.1902E-6;-3.0E-7;0;Amateur
13.53090061;0.035119;98.5269;263.7029;58.4608;305.033;1.4553E-5;-1.9E-7;0;Amateur
13.53090038;0.035118;98.527;263.9582;57.695;305.7697;1.6545E-5;-1.7E-7;0;Amateur
13.53090068;0.0351158;98.5271;264.5327;55.9729;307.424;2.1242E-5;-1.2E-7;0;Amateur
13.53090082;0.0351142;98.5272;264.9795;54.6331;308.7091;2.6323E-5;-7.0E-8;0;Amateur
13.53090111;0.0351129;98.5273;265.4263;53.2939;309.9922;3.2403E-5;-1.0E-8;0;Amateur
13.53090134;0.0351113;98.5274;265.8732;51.9539;311.2741;3.6398E-5;2.0E-8;0;Amateur
13.53090175;0.0351102;98.5275;266.2562;50.8053;312.3718;4.044E-5;6.0E-8;0;Amateur
13.53090232;0.035107;98.5277;267.0861;48.3177;314.745;4.5081E-5;1.1E-7;0;Amateur
13.53090244;0.0351069;98.5277;267.1499;48.1263;314.9274;4.5654E-5;1.1E-7;0;Amateur
13.53090286;0.035103;98.5279;267.9797;45.6381;317.2955;4.3769E-5;9.0E-8;0;Amateur
13.53090349;0.0350996;98.528;268.8735;42.9572;319.8415;4.1394E-5;7.0E-8;0;Amateur
13.53090423;0.0350965;98.5282;269.7673;40.2768;322.3815;3.6383E-5;2.0E-8;0;Amateur
13.53090431;0.035095;98.5282;270.1503;39.1285;323.468;3.1926E-5;-3.0E-8;0;Amateur
13.53090492;0.0350911;98.5284;271.0441;36.447;326.0016;2.7822E-5;-7.0E-8;0;Amateur
13.5309053;0.0350892;98.5285;271.491;35.1073;327.2657;2.4329E-5;-1.0E-7;0;Amateur
13.53090567;0.0350876;98.5285;271.9379;33.7653;328.5307;2.3389E-5;-1.1E-7;0;Amateur
13.5309058;0.0350858;98.5286;272.3209;32.6161;329.6131;2.1787E-5;-1.3E-7;0;Amateur
13.53090632;0.0350828;98.5288;273.1509;30.127;331.955;1.8222E-5;-1.7E-7;0;Amateur
13.53090637;0.0350827;98.5288;273.2148;29.9352;332.1353;1.834E-5;-1.6E-7;0;Amateur
13.53090656;0.0350788;98.529;274.0448;27.4441;334.4752;1.4594E-5;-2.0E-7;0;Amateur
13.53090646;0.0350774;98.529;274.1725;27.0607;334.835;1.3763E-5;-2.1E-7;0;Amateur
13.53090661;0.0350761;98.5291;274.4917;26.1023;335.7342;1.2667E-5;-2.2E-7;0;Amateur
13.53090689;0.0350736;98.5292;274.9386;24.7621;336.9909;1.2247E-5;-2.3E-7;0;Amateur
13.53090692;0.0350711;98.5293;275.4494;23.2291;338.4273;1.0729E-5;-2.4E-7;0;Amateur
13.53090684;0.0350706;98.5294;275.5771;22.8462;338.786;1.0756E-5;-2.4E-7;0;Amateur
13.53090697;0.0350675;98.5294;276.2157;20.9292;340.5805;7.7172E-6;-2.7E-7;0;Amateur
13.53090718;0.0350654;98.5295;276.6626;19.5891;341.8342;6.8182E-6;-2.8E-7;0;Amateur
13.53090721;0.0350654;98.5296;276.7265;19.3977;342.0133;7.2494E-6;-2.8E-7;0;Amateur
13.53090742;0.0350608;98.5297;277.4927;17.0992;344.1618;7.3034E-6;-2.8E-7;0;Amateur
13.53090735;0.0350564;98.5299;278.3866;14.4159;346.668;6.7983E-7;-3.5E-7;0;Amateur
13.53090746;0.0350538;98.5299;278.8975;12.8815;348.1002;2.3203E-7;-3.5E-7;0;Amateur
13.53090762;0.035052;98.53;279.2168;11.9232;348.9944;8.5197E-7;-3.5E-7;0;Amateur
13.5309075;0.0350477;98.5301;280.1107;9.2394;351.4977;-6.1727E-6;-4.2E-7;0;Amateur
13.53090709;0.0350426;98.5302;280.9408;6.7464;353.8219;-1.3067E-5;-4.9E-7;0;Amateur
13.53090708;0.0350421;98.5302;281.0686;6.3631;354.1792;-1.2841E-5;-4.8E-7;0;Amateur
13.53090688;0.0350379;98.5303;281.8349;4.0609;356.3247;-1.8105E-5;-5.4E-7;0;Amateur
13.5309066;0.0350352;98.5303;282.2819;2.7182;357.5758;-2.0062E-5;-5.6E-7;0;Amateur
13.53090646;0.0350338;98.5304;282.665;1.5679;358.6477;-2.063E-5;-5.6E-7;0;Amateur
13.5309062;0.0350315;98.5305;283.112;0.2257;359.8982;-2.3269E-5;-5.9E-7;0;Amateur
13.53090593;0.0350291;98.5306;283.5591;358.8838;1.1485;-2.5402E-5;-6.1E-7;0;Amateur
13.53090566;0.0350273;98.5306;284.0061;357.5403;2.4004;-2.4728E-5;-6.1E-7;0;Amateur
13.53090558;0.0350251;98.5307;284.3893;356.3899;3.4724;-2.3062E-5;-5.9E-7;0;Amateur
13.53090547;0.0350229;98.5308;284.9002;354.8552;4.9027;-2.0825E-5;-5.7E-7;0;Amateur
13.53090533;0.0350208;98.5309;285.2834;353.7045;5.9752;-1.8575E-5;-5.5E-7;0;Amateur
13.53090516;0.0350166;98.531;286.1137;351.2109;8.3001;-1.0277E-5;-4.7E-7;0;Amateur
13.53090493;0.0350129;98.5312;286.8162;349.0996;10.2695;-3.9416E-6;-4.1E-7;0;Amateur
13.5309051;0.0350118;98.5312;287.0078;348.5243;10.8063;-2.3393E-8;-3.7E-7;0;Amateur
13.53090527;0.0350043;98.5315;288.5406;343.9187;15.1064;2.0684E-5;-1.7E-7;0;Amateur
13.53090547;0.0350024;98.5316;288.8599;342.9592;16.0031;2.68E-5;-1.1E-7;0;Amateur
13.53090589;0.0349987;98.5317;289.6264;340.6567;18.156;3.4893E-5;-3.0E-8;0;Amateur
13.53090614;0.0349969;98.5318;290.0096;339.505;19.2336;3.928E-5;2.0E-8;0;Amateur
13.53090652;0.0349952;98.5319;290.4567;338.1618;20.491;4.4403E-5;7.0E-8;0;Amateur
13.53090691;0.0349934;98.5319;290.9039;336.8182;21.7496;4.8833E-5;1.1E-7;0;Amateur
13.53090733;0.0349915;98.532;291.351;335.4748;23.0088;4.9846E-5;1.2E-7;0;Amateur
13.53090809;0.0349873;98.5322;292.1814;332.979;25.3505;5.1171E-5;1.3E-7;0;Amateur
13.53090808;0.0349869;98.5322;292.3091;332.5948;25.7111;5.0666E-5;1.2E-7;0;Amateur
13.53090882;0.0349841;98.5323;292.884;330.8664;27.335;5.132E-5;1.3E-7;0;Amateur
13.53090933;0.0349817;98.5323;293.4589;329.1384;28.9601;4.5798E-5;8.0E-8;0;Amateur
13.53090995;0.0349776;98.5325;294.3532;326.4496;31.4923;3.6565E-5;-2.0E-8;0;Amateur
13.53091022;0.0349758;98.5325;294.7365;325.2979;32.5783;3.0682E-5;-7.0E-8;0;Amateur
13.53091046;0.0349734;98.5326;295.3114;323.5691;34.21;2.2729E-5;-1.5E-7;0;Amateur
13.53091091;0.0349722;98.5327;295.6308;322.6086;35.1174;2.2614E-5;-1.6E-7;0;Amateur
13.53091136;0.0349679;98.5328;296.4612;320.1111;37.48;1.3144E-5;-2.5E-7;0;Amateur
13.53091135;0.0349677;98.5328;296.5251;319.9193;37.6616;1.1883E-5;-2.6E-7;0;Amateur
13.5309118;0.0349638;98.533;297.3556;317.4211;40.0297;8.6844E-6;-2.9E-7;0;Amateur
13.53091183;0.0349636;98.533;297.4195;317.2291;40.2119;8.4788E-6;-3.0E-7;0;Amateur
13.53091203;0.0349622;98.533;297.8027;316.076;41.3067;7.0618E-6;-3.1E-7;0;Amateur
